{"type":"FeatureCollection","features":[{"type":"Feature","properties":{"name":"Tower A","heightFeet":420},"geometry":{"type":"Point","coordinates":[-122.4194,37.7749]}},{"type":"Feature","properties":{"name":"Crane B","heightFeet":310},"geometry":{"type":"Point","coordinates":[-122.3894,37.6213]}},{"type":"Feature","properties":{"name":"Restricted strip","kind":"line"},"geometry":{"type":"LineString","coordinates":[[-122.45,37.7],[-122.35,37.66]]}},{"type":"Feature","properties":{"name":"Construction zone","kind":"area"},"geometry":{"type":"Polygon","coordinates":[[[-122.41,37.79],[-122.39,37.79],[-122.39,37.77],[-122.41,37.77],[-122.41,37.79]]]}}]}